OOV-CUBE (TUBSAT-30)    
1 60240U 24128F   26116.74932294  .00002968  00000+0  23209-3 0  9998
2 60240  61.9960  44.8977 0050469 122.4640 238.1345 15.02511706 98389
LPNTSAT-001 (IOD-1)     
1 68408U 26065A   26115.62072985  .00002338  00000+0  11668-3 0  9999
2 68408  97.4087 357.2309 0016893 181.6655 178.4526 15.18368758  4280
